[{"OBJECT_NAME":"GSAT0213 (GALILEO 17)","OBJECT_ID":"2016-069C","EPOCH":"2026-03-05T17:27:54.504288","MEAN_MOTION":1.7047497,"ECCENTRICITY":0.0005237,"INCLINATION":55.4302,"RA_OF_ASC_NODE":103.9512,"ARG_OF_PERICENTER":292.7393,"MEAN_ANOMALY":67.2847,"EPHEMERIS_TYPE":0,"CLASSIFICATION_TYPE":"U","NORAD_CAT_ID":41861,"ELEMENT_SET_NO":999,"REV_AT_EPOCH":5775,"BSTAR":0,"MEAN_MOTION_DOT":8.0e-8,"MEAN_MOTION_DDOT":0},{"OBJECT_NAME":"GSAT0214 (GALILEO 18)","OBJECT_ID":"2016-069D","EPOCH":"2026-02-28T00:11:27.536640","MEAN_MOTION":1.70474701,"ECCENTRICITY":0.00041329,"INCLINATION":55.425,"RA_OF_ASC_NODE":104.1026,"ARG_OF_PERICENTER":296.1582,"MEAN_ANOMALY":63.8775,"EPHEMERIS_TYPE":0,"CLASSIFICATION_TYPE":"U","NORAD_CAT_ID":41862,"ELEMENT_SET_NO":999,"REV_AT_EPOCH":5778,"BSTAR":0,"MEAN_MOTION_DOT":7.0e-8,"MEAN_MOTION_DDOT":0},{"OBJECT_NAME":"SES-15 (WAAS/PRN 133)","OBJECT_ID":"2017-026A","EPOCH":"2026-03-05T00:25:38.690688","MEAN_MOTION":1.0027106,"ECCENTRICITY":7.138e-5,"INCLINATION":0.0426,"RA_OF_ASC_NODE":307.9199,"ARG_OF_PERICENTER":39.5952,"MEAN_ANOMALY":52.4724,"EPHEMERIS_TYPE":0,"CLASSIFICATION_TYPE":"U","NORAD_CAT_ID":42709,"ELEMENT_SET_NO":999,"REV_AT_EPOCH":638,"BSTAR":0,"MEAN_MOTION_DOT":5.0e-7,"MEAN_MOTION_DDOT":0},{"OBJECT_NAME":"QZS-2 (QZSS/PRN 194)","OBJECT_ID":"2017-028A","EPOCH":"2026-03-05T17:39:05.611104","MEAN_MOTION":1.00261653,"ECCENTRICITY":0.0745487,"INCLINATION":39.5883,"RA_OF_ASC_NODE":244.6601,"ARG_OF_PERICENTER":270.3415,"MEAN_ANOMALY":54.7958,"EPHEMERIS_TYPE":0,"CLASSIFICATION_TYPE":"U","NORAD_CAT_ID":42738,"ELEMENT_SET_NO":999,"REV_AT_EPOCH":658,"BSTAR":0,"MEAN_MOTION_DOT":-1.7e-6,"MEAN_MOTION_DDOT":0},{"OBJECT_NAME":"QZS-3 (QZSS/PRN 199)","OBJECT_ID":"2017-048A","EPOCH":"2026-03-05T17:43:08.611104","MEAN_MOTION":1.00275676,"ECCENTRICITY":0.0002288,"INCLINATION":0.0697,"RA_OF_ASC_NODE":214.4992,"ARG_OF_PERICENTER":143.6382,"MEAN_ANOMALY":198.1087,"EPHEMERIS_TYPE":0,"CLASSIFICATION_TYPE":"U","NORAD_CAT_ID":42917,"ELEMENT_SET_NO":999,"REV_AT_EPOCH":3122,"BSTAR":0,"MEAN_MOTION_DOT":-3.55e-6,"MEAN_MOTION_DDOT":0},{"OBJECT_NAME":"COSMOS 2522 (752)","OBJECT_ID":"2017-055A","EPOCH":"2026-03-05T09:59:57.336576","MEAN_MOTION":2.13101663,"ECCENTRICITY":0.0007252,"INCLINATION":64.0788,"RA_OF_ASC_NODE":195.4131,"ARG_OF_PERICENTER":227.433,"MEAN_ANOMALY":132.4745,"EPHEMERIS_TYPE":0,"CLASSIFICATION_TYPE":"U","NORAD_CAT_ID":42939,"ELEMENT_SET_NO":999,"REV_AT_EPOCH":6576,"BSTAR":0,"MEAN_MOTION_DOT":1.4e-7,"MEAN_MOTION_DDOT":0},{"OBJECT_NAME":"QZS-4 (QZSS/PRN 195)","OBJECT_ID":"2017-062A","EPOCH":"2026-03-05T17:47:25.010016","MEAN_MOTION":1.00280691,"ECCENTRICITY":0.0748495,"INCLINATION":40.1722,"RA_OF_ASC_NODE":344.8064,"ARG_OF_PERICENTER":269.915,"MEAN_ANOMALY":316.0784,"EPHEMERIS_TYPE":0,"CLASSIFICATION_TYPE":"U","NORAD_CAT_ID":42965,"ELEMENT_SET_NO":999,"REV_AT_EPOCH":3076,"BSTAR":0,"MEAN_MOTION_DOT":-3.41e-6,"MEAN_MOTION_DDOT":0},{"OBJECT_NAME":"BEIDOU-3 M1 (C19)","OBJECT_ID":"2017-069A","EPOCH":"2026-03-04T23:07:42.560256","MEAN_MOTION":1.8623107,"ECCENTRICITY":0.0012381,"INCLINATION":56.6017,"RA_OF_ASC_NODE":66.5157,"ARG_OF_PERICENTER":309.6653,"MEAN_ANOMALY":50.2473,"EPHEMERIS_TYPE":0,"CLASSIFICATION_TYPE":"U","NORAD_CAT_ID":43001,"ELEMENT_SET_NO":999,"REV_AT_EPOCH":5666,"BSTAR":0,"MEAN_MOTION_DOT":-2.9e-7,"MEAN_MOTION_DDOT":0},{"OBJECT_NAME":"BEIDOU-3 M2 (C20)","OBJECT_ID":"2017-069B","EPOCH":"2026-03-04T08:45:56.367072","MEAN_MOTION":1.86230543,"ECCENTRICITY":0.00097094,"INCLINATION":56.5998,"RA_OF_ASC_NODE":66.5715,"ARG_OF_PERICENTER":329.0395,"MEAN_ANOMALY":30.928,"EPHEMERIS_TYPE":0,"CLASSIFICATION_TYPE":"U","NORAD_CAT_ID":43002,"ELEMENT_SET_NO":999,"REV_AT_EPOCH":5664,"BSTAR":0,"MEAN_MOTION_DOT":-2.4e-7,"MEAN_MOTION_DDOT":0},{"OBJECT_NAME":"GSAT0215 (GALILEO 19)","OBJECT_ID":"2017-079A","EPOCH":"2026-03-03T10:20:26.274624","MEAN_MOTION":1.70474475,"ECCENTRICITY":6.318e-5,"INCLINATION":55.108,"RA_OF_ASC_NODE":224.4135,"ARG_OF_PERICENTER":13.1955,"MEAN_ANOMALY":346.7446,"EPHEMERIS_TYPE":0,"CLASSIFICATION_TYPE":"U","NORAD_CAT_ID":43055,"ELEMENT_SET_NO":999,"REV_AT_EPOCH":5118,"BSTAR":0,"MEAN_MOTION_DOT":1.0e-7,"MEAN_MOTION_DDOT":0},{"OBJECT_NAME":"GSAT0216 (GALILEO 20)","OBJECT_ID":"2017-079B","EPOCH":"2026-03-01T23:05:47.137632","MEAN_MOTION":1.70474524,"ECCENTRICITY":0.00016887,"INCLINATION":55.1088,"RA_OF_ASC_NODE":224.454,"ARG_OF_PERICENTER":322.1798,"MEAN_ANOMALY":37.7539,"EPHEMERIS_TYPE":0,"CLASSIFICATION_TYPE":"U","NORAD_CAT_ID":43056,"ELEMENT_SET_NO":999,"REV_AT_EPOCH":5117,"BSTAR":0,"MEAN_MOTION_DOT":1.3e-7,"MEAN_MOTION_DDOT":0},{"OBJECT_NAME":"GSAT0217 (GALILEO 21)","OBJECT_ID":"2017-079C","EPOCH":"2026-03-05T02:47:02.109696","MEAN_MOTION":1.70474546,"ECCENTRICITY":0.0002088,"INCLINATION":55.1079,"RA_OF_ASC_NODE":224.3651,"ARG_OF_PERICENTER":356.014,"MEAN_ANOMALY":3.9214,"EPHEMERIS_TYPE":0,"CLASSIFICATION_TYPE":"U","NORAD_CAT_ID":43057,"ELEMENT_SET_NO":999,"REV_AT_EPOCH":5121,"BSTAR":0,"MEAN_MOTION_DOT":1.4e-7,"MEAN_MOTION_DDOT":0},{"OBJECT_NAME":"GSAT0218 (GALILEO 22)","OBJECT_ID":"2017-079D","EPOCH":"2026-03-04T17:59:13.370784","MEAN_MOTION":1.70474529,"ECCENTRICITY":0.00019211,"INCLINATION":55.1048,"RA_OF_ASC_NODE":224.373,"ARG_OF_PERICENTER":303.9467,"MEAN_ANOMALY":55.9718,"EPHEMERIS_TYPE":0,"CLASSIFICATION_TYPE":"U","NORAD_CAT_ID":43058,"ELEMENT_SET_NO":999,"REV_AT_EPOCH":5123,"BSTAR":0,"MEAN_MOTION_DOT":1.3e-7,"MEAN_MOTION_DDOT":0},{"OBJECT_NAME":"BEIDOU-3 M7 (C27)","OBJECT_ID":"2018-003A","EPOCH":"2026-03-05T04:20:50.993664","MEAN_MOTION":1.86232262,"ECCENTRICITY":0.0004668,"INCLINATION":54.4201,"RA_OF_ASC_NODE":305.9428,"ARG_OF_PERICENTER":71.1796,"MEAN_ANOMALY":288.9274,"EPHEMERIS_TYPE":0,"CLASSIFICATION_TYPE":"U","NORAD_CAT_ID":43107,"ELEMENT_SET_NO":999,"REV_AT_EPOCH":5541,"BSTAR":0,"MEAN_MOTION_DOT":-6.7e-7,"MEAN_MOTION_DDOT":0},{"OBJECT_NAME":"BEIDOU-3 M8 (C28)","OBJECT_ID":"2018-003B","EPOCH":"2026-03-05T03:02:28.054176","MEAN_MOTION":1.8623077,"ECCENTRICITY":0.0003033,"INCLINATION":54.4128,"RA_OF_ASC_NODE":305.9274,"ARG_OF_PERICENTER":294.0648,"MEAN_ANOMALY":65.96,"EPHEMERIS_TYPE":0,"CLASSIFICATION_TYPE":"U","NORAD_CAT_ID":43108,"ELEMENT_SET_NO":999,"REV_AT_EPOCH":5542,"BSTAR":0,"MEAN_MOTION_DOT":-6.7e-7,"MEAN_MOTION_DDOT":0},{"OBJECT_NAME":"BEIDOU-3 M4 (C22)","OBJECT_ID":"2018-018A","EPOCH":"2026-03-03T10:06:22.837824","MEAN_MOTION":1.86230898,"ECCENTRICITY":0.00068671,"INCLINATION":56.5592,"RA_OF_ASC_NODE":66.6343,"ARG_OF_PERICENTER":350.5022,"MEAN_ANOMALY":9.5144,"EPHEMERIS_TYPE":0,"CLASSIFICATION_TYPE":"U","NORAD_CAT_ID":43207,"ELEMENT_SET_NO":999,"REV_AT_EPOCH":5477,"BSTAR":0,"MEAN_MOTION_DOT":-1.6e-7,"MEAN_MOTION_DDOT":0},{"OBJECT_NAME":"BEIDOU-3 M3 (C21)","OBJECT_ID":"2018-018B","EPOCH":"2026-03-03T11:42:03.914784","MEAN_MOTION":1.8623101,"ECCENTRICITY":0.0009891,"INCLINATION":56.5588,"RA_OF_ASC_NODE":66.6362,"ARG_OF_PERICENTER":319.5859,"MEAN_ANOMALY":40.3698,"EPHEMERIS_TYPE":0,"CLASSIFICATION_TYPE":"U","NORAD_CAT_ID":43208,"ELEMENT_SET_NO":999,"REV_AT_EPOCH":5477,"BSTAR":0,"MEAN_MOTION_DOT":-1.7e-7,"MEAN_MOTION_DDOT":0}]
